[{"OBJECT_NAME":"FLOCK 4G-17","OBJECT_ID":"2025-009CA","EPOCH":"2026-03-09T22:51:51.984864","MEAN_MOTION":15.27385439,"ECCENTRICITY":0.00036407,"INCLINATION":97.3966,"RA_OF_ASC_NODE":151.0229,"ARG_OF_PERICENTER":339.6132,"MEAN_ANOMALY":20.4962,"EPHEMERIS_TYPE":0,"CLASSIFICATION_TYPE":"U","NORAD_CAT_ID":62681,"ELEMENT_SET_NO":999,"REV_AT_EPOCH":12139,"BSTAR":0.00053710713,"MEAN_MOTION_DOT":0.00014342,"MEAN_MOTION_DDOT":0},{"OBJECT_NAME":"STARLINK-34098","OBJECT_ID":"2025-107S","EPOCH":"2026-03-09T10:25:32.624832","MEAN_MOTION":15.27598783,"ECCENTRICITY":0.00020373,"INCLINATION":42.9976,"RA_OF_ASC_NODE":202.7882,"ARG_OF_PERICENTER":184.0291,"MEAN_ANOMALY":176.0544,"EPHEMERIS_TYPE":0,"CLASSIFICATION_TYPE":"U","NORAD_CAT_ID":64080,"ELEMENT_SET_NO":999,"REV_AT_EPOCH":4608,"BSTAR":0.0010459553,"MEAN_MOTION_DOT":0.00028649,"MEAN_MOTION_DDOT":0}]
